id,name,city,country,company,lat,lon
velobike-moscow,Velobike,Moscow,RU,ЗАО «СитиБайк»,55.75,37.616667
bycyklen,Bycyklen,Copenhagen,DK,Gobike A/S,55.673582,12.564984
nu-connect,Nu-Connect,Utrecht,NL,Gobike A/S,52.117,5.067
baerum-bysykkel,Bysykkel,Bærum,NO,Urban Infrastructure Partner,59.89455,10.546343
bysykkelen,Bysykkelen,Stavanger,NO,Gobike A/S,58.969975,5.733107
onroll-a-rua,Onroll,A Rúa,ES,Domoblue,42.392049,-7.114634
onroll-albacete,Onroll,Albacete,ES,Domoblue,38.98913,-1.858485
onroll-alhama-de-murcia,Onroll,Alhama de Murcia,ES,Domoblue,37.849831,-1.424891
onroll-almunecar,Onroll,Almuñécar,ES,Domoblue,36.735789,-3.688828
onroll-antequera,Onroll,Antequera,ES,Domoblue,37.018427,-4.563775
onroll-aranda-de-duero,Onroll,Aranda de Duero,ES,Domoblue,41.667601,-3.689526
onroll-aranjuez,Onroll,Aranjuez,ES,Domoblue,40.03097,-3.605742
onroll-badajoz,Onroll,Badajoz,ES,Domoblue,38.873627,-6.99451
onroll-baeza,Onroll,Baeza,ES,Domoblue,37.99537,-3.468248
onroll-benidorm,Onroll,Benidorm,ES,Domoblue,38.541251,-0.126808
onroll-blanca,Onroll,Blanca,ES,Domoblue,38.178195,-1.372402
onroll-cieza,Onroll,Cieza,ES,Domoblue,38.239139,-1.417262
onroll-don-benito-villanueva,Onroll,Don Benito - Villanueva,ES,Domoblue,38.964699,-5.829693
onroll-el-campello,Onroll,El Campello,ES,Domoblue,38.419616,-0.398388
onroll-elche,Onroll,Elche,ES,Domoblue,38.2668,-0.696217
onroll-guadalajara,Onroll,Guadalajara,ES,Domoblue,40.633021,-3.166097
onroll-jaen,Onroll,Jaén,ES,Domoblue,37.777738,-3.790758
onroll-lalin,Onroll,Lalín,ES,Domoblue,42.658626,-8.114976
onroll-las-palmas,Onroll,Las Palmas de Gran Canaria,ES,Domoblue,28.124302,-15.425994
onroll-montilla,Onroll,Montilla,ES,Domoblue,37.584151,-4.641359
onroll-novelda,Onroll,Novelda,ES,Domoblue,38.386447,-0.767134
onroll-mula,Onroll,Mula,ES,Domoblue,38.040805,-1.497451
onroll-o-barco,Onroll,O Barco,ES,Domoblue,42.413993,-6.982913
onroll-palencia,Onroll,Palencia,ES,Domoblue,42.005639,-4.527022
onroll-paiporta,Onroll,Paiporta,ES,Domoblue,39.427609,-0.416876
onroll-pinto,Onroll,Pinto,ES,Domoblue,40.245741,-3.698611
onroll-priego-de-cordoba,Onroll,Priego de Córdoba,ES,Domoblue,37.440517,-4.201188
onroll-puerto-lumbreras,Onroll,Puerto Lumbreras,ES,Domoblue,37.556652,-1.811508
onroll-puertollano,Onroll,Puertollano,ES,Domoblue,38.691396,-4.107794
onroll-redondela,Onroll,Redondela,ES,Domoblue,42.299964,-8.615428
onroll-salamanca,Onroll,Salamanca,ES,Domoblue,40.966771,-5.665432
onroll-san-javier,Onroll,San Javier,ES,Domoblue,37.783704,-0.808097
onroll-san-pedro,Onroll,San Pedro del Pinatar,ES,Domoblue,37.827578,-0.783944
onroll-sant-joan,Onroll,Sant Joan d'Alacant,ES,Domoblue,38.399839,-0.434522
onroll-segovia,Onroll,Segovia,ES,Domoblue,40.941941,-4.112397
onroll-soria,Onroll,Soria,ES,Domoblue,41.763653,-2.467069
onroll-talavera,Onroll,Talavera de la Reina,ES,Domoblue,39.961829,-4.830319
onroll-ubeda,Onroll,Úbeda,ES,Domoblue,38.011463,-3.373276
onroll-universidad-de-granada,Onroll,"Universidad de Granada, Granada",ES,Domoblue,37.182438,-3.604219
bicincitta-siena,Bicincittà,Siena,IT,Comunicare S.r.l.,43.3186,11.3306
onroll-via-verde,Onroll Via Verde,Noia - Portosin - Porto do Son,ES,Domoblue,42.768127,-8.908513
onroll-villaquilambre,Onroll,Villaquilambre,ES,Domoblue,42.642358,-5.535311
onroll-vinaros,Onroll,Vinaròs,ES,Domoblue,40.468258,0.466972
cyclopolis-maroussi,Cyclopolis,Maroussi,GR,Cyclopolis Systems,38.0568722388,23.8083299536
cycle-hire-slough,Cycle Hire,Slough,GB,Groundwork & Slough Borough Council & ITS,51.51135,-0.591562
cyclopolis-nafplio,Cyclopolis,Maroussi,GR,Cyclopolis Systems,37.5639397319,22.8093402872
bicincitta-parco-dei-colli-di-bergamo,Bicincittà,Parco dei Colli di Bergamo,IT,Comunicare S.r.l.,45.72295637032245,9.649230073016383
cyclopolis-aigialeia,Cyclopolis,Maroussi,GR,Cyclopolis Systems,38.2511101325,22.0821570196
cyclopolis-marathon,Cyclopolis,Marathon,GR,Cyclopolis Systems,38.0855680022,23.9776389963
bicincitta-mantova,Bicincittà,Mantova,IT,Comunicare S.r.l.,45.15866370764634,10.783718973016335
cyclopolis-neasmyrni,Cyclopolis,Νea Smyrni,GR,Cyclopolis Systems,37.9381,23.7126
cyclopolis-moschatotavros,Cyclopolis,Μoschato-Tavros,GR,Cyclopolis Systems,37.9538991434,23.6824746661
cyclopolis-arxaiaolympia,Cyclopolis,Αrxaia Olympia,GR,Cyclopolis Systems,37.6419700934,21.6247265179
cyclopolis-kiato,Cyclopolis,Kιato,GR,Cyclopolis Systems,38.0132674508,22.7493819902
bicincitta-assemini,Bicincittà,Assemini,IT,Comunicare S.r.l.,39.28956306007679,9.006601555294765
cyclopolis-rhodes,Cyclopolis,Rhodes,GR,Cyclopolis Systems,36.4509118,28.2246966
cyclopolis-florina,Cyclopolis,Florina,GR,Cyclopolis Systems,40.8016111,21.4245222
bicincitta-tortoli,Bicincittà,Tortolì,IT,Comunicare S.r.l.,39.92664489852196,9.654953570777934
cyclopolis-limnos,Cyclopolis,Limnos,GR,Cyclopolis Systems,39.8747861,25.0586722
bicincitta-gaeta,Bicincittà,Gaeta,IT,Comunicare S.r.l.,41.209620965538036,13.584335125656139
bicincitta-borgarello,Bicincittà,Borgarello,IT,Comunicare S.r.l.,45.23963753440171,9.136150475640875
bicincitta-pizzighettone-formigara,Bicincittà,Pizzighettone e Formigara,IT,Comunicare S.r.l.,45.186748819167434,9.778087948479424
cork,Coca-Cola Zero® Bikes,Cork,IE,The National Transport Authority,51.893604,-8.494174
limerick,Coca-Cola Zero® Bikes,Limerick,IE,The National Transport Authority,52.668746,-8.627809
punpunbikeshare,Pun Pun Bike Share,Bangkok,TH,BTS Group Holdings,13.75,100.516667
galway,Coca-Cola Zero® Bikes,Galway,IE,The National Transport Authority,53.2783491544,-9.05069143207
bbbike,BBBike,Bielsko-Biała,PL,Bike U Sp. z o.o.,49.8225,19.044444
bicincitta-montecatini-terme,Bicincittà,Montecatini Terme,IT,Comunicare S.r.l.,43.88362791665083,10.764385656591799
bikeu-bra,Bydgoski rower aglomeracyjny,Bydgoszcz,PL,Bike U Sp. z o.o.,53.12193,18.00038
santander-cycles,Santander Cycles,London,GB,PBSC & Serco Group plc,51.51121389999999,-0.1198244
we-cycle,WE-cycle,"Aspen, CO",US,"PBSC & Alta Bicycle Share, Inc",39.194951,-106.837002
bicincitta-carrara,Bicincittà,Carrara,IT,Comunicare S.r.l.,44.07731805550891,10.097172450401331
wowcycle-reykjavik,WOW Citybike,Reykjavík,IS,"PBSC & Alta Bicycle Share, Inc",64.128288,-21.827774
stadtrad-hamburg,StadtRAD Hamburg',Hamburg,DE,Transparenzportal Hamburg,53.57532,10.01534
tigullionbike,Tigullionbike,Sestri Levante - Lavagna,IT,Comunicare S.r.l.,44.272554,9.395714
arbike,ARbike,Arezzo,IT,Comunicare S.r.l.,43.473333,11.87
velobike,Velobike,Astana,KZ,"Velobike.kz, LLP & Smoove",51.166667,71.416667
velib,Velib' Métropôle,Paris,FR,Smovengo,48.856614,2.3522219
ascoli-piceno,Ascoli Piceno,Ascoli Piceno,IT,Comunicare S.r.l.,42.85,13.583333
bigi,BiGi,Bergamo,IT,Comunicare S.r.l.,45.695,9.67
girocleta,Girocleta,Girona,ES,ICNITA S.L.,41.9794005,2.8214264
alba,Alba,Alba,IT,Comunicare S.r.l.,44.716667,8.083333
bikemi,BikeMi,Milano,IT,ClearChannel,45.4654542,9.186516
biella,Biella,Biella,IT,Comunicare S.r.l.,45.5775,8.051111
chivasso,Chivasso,Chivasso,IT,Comunicare S.r.l.,45.189765,7.888935
bizi,Bizi,Zaragoza,ES,ClearChannel,41.6487908,-0.8895811
ecobici,EcoBici,Cd de México,MX,ClearChannel,19.4326077,-99.133208
bici-in-busto,Bici in Busto,Busto Arsizio,IT,Comunicare S.r.l.,45.610555,8.852062
velo-antwerpen,Velo Antwerpen,Antwerpen,BE,ClearChannel,51.216667,4.4
cuneo,Cuneo,Cuneo,IT,Comunicare S.r.l.,44.384238,7.541428
malmobybike,Malmö by bike,Malmö,SE,ClearChannel,55.605,13.0038
bicilascondes,Bici las Condes,Las Condes,CL,ClearChannel,-33.401944,-70.55
bicimad,BiciMAD,Madrid,ES,"E & m & p & r & e & s & a &   & M & u & n & i & c & i & p & a & l &   & d & e &   & T & r & a & n & s & p & o & r & t & e & s &   & d & e &   & M & a & d & r & i & d & , &   & S & . & A & .",40.4168,-3.7038
easybike-didymoteicho,EasyBike,Didymoteicho,GR,Brainbox Technology & Smoove SAS,41.3502539849,26.4972960949
free-bike-sharing,FRee Bike sharing,Frosinone,IT,Comunicare S.r.l.,41.645081,13.342123
easybike-glyfada,EasyBike,Glyfada,GR,Brainbox Technology & Smoove SAS,37.8715809825,23.7355544376
easybike-igoumenitsa,EasyBike,Igoumenitsa,GR,Brainbox Technology & Smoove SAS,39.5005770633,20.2635206985
lecce,lecce,Lecce,IT,Comunicare S.r.l.,40.35040350928062,18.177824020385742
easybike-ioannina,EasyBike,Ioannina,GR,Brainbox Technology & Smoove SAS,39.6639818,20.8522784
easybike-karditsa,EasyBike,Karditsa,GR,Brainbox Technology & Smoove SAS,39.3634604,21.9211192
manerba-in-bici,Manerba in Bici,Manerba del Garda,IT,Comunicare S.r.l.,45.561179,10.559406
easybike-kavala,EasyBike,Kavala,GR,Brainbox Technology & Smoove SAS,40.9369068,24.4122164
easybike-kinouria,EasyBike,Kinouria,GR,Brainbox Technology & Smoove SAS,37.1476704305,22.8933729935
easybike-komotini,EasyBike,Komotini,GR,Brainbox Technology & Smoove SAS,41.117833,25.4041307
easybike-patra,EasyBike,Patra,GR,Brainbox Technology & Smoove SAS,38.2410966371,21.7259683418
mar-e-bici,Mar e Bici,Marciana Marina,IT,Comunicare S.r.l.,42.805855,10.196514
easybike-rethymno,EasyBike,Rethymno,GR,Brainbox Technology & Smoove SAS,35.3667571777,24.4832845736
easybike-samos,EasyBike,Samos,GR,Brainbox Technology & Smoove SAS,37.754065919,26.9787850189
novara,Novara,Novara,IT,Comunicare S.r.l.,45.44574,8.622165
easybike-nicosia,EasyBike,Nicosia,CY,Brainbox Technology & Smoove SAS,35.1739302,33.364726
easybike-mani,EasyBike,Mani,GR,Brainbox Technology & Smoove SAS,41.4097472,26.4024952
easybike-irakleio,EasyBike,Irakleio,GR,Brainbox Technology & Smoove SAS,35.338735,25.144213
thessbike,ThessBike,Thessaloniki,GR,Brainbox Technology & Smoove SAS,40.6403167,22.9352716
athens-bikes,AthensBikes,Athens,GR,Brainbox Technology & Smoove SAS,37.9838,23.7275
goodbike,GoodBike,Padova,IT,Comunicare S.r.l.,45.4064349,11.8767611
ciclosampa,CicloSampa,São Paulo,BR,PegBike,-23.55,-46.6333
bicicorunha,Bicicoruña,A Coruña,ES,Tuimil S.A.,43.3623,-8.4115
bici-ferrol-terra,BiciFerrolTerra,Ferrol - Narón,ES,Tuimil S.A.,43.4896,-8.2193
curtin-bike-share,Curtin Bike Share,"Curtin University, Perth, WA",AU,Social Bicycles Inc.,-32.0034172153127,115.89431270956993
monash-bikeshare,Monash BikeShare,"Melbourne, AU",AU,Social Bicycles Inc.,-37.91238410208696,145.1362281292677
mimuovofe,Mi Muovo in Bici,Ferrara,IT,Comunicare S.r.l.,44.8350382,11.6240562
bixi-montreal,Bixi,"Montréal, QC",CA,"Motivate International, Inc. & PBSC Urban Solutions & BIXI Montréal",45.508693,-73.553928
parma,Mi Muovo in Bici,Parma,IT,Comunicare S.r.l.,44.801485,10.3279036
bixi-toronto,Bike Share Toronto,"Toronto, ON",CA,"Motivate International, Inc. & PBSC Urban Solutions",43.653226,-79.3831843
sobi-hamilton,SoBi,"Hamilton, ON",CA,Social Bicycles Inc.,43.25643601915583,-79.86929655075073
velogo,VeloGO,"Ottawa, ON",CA,"CycleHop, LLC & Social Bicycles Inc.",45.4285325522342,-75.6970576741095
arborbike,ArborBike,"Ann Arbor, MI",US,"Clean Energy Coalition & BCycle, LLC",42.27853,-83.74536
pavia-in-bici,Pavia in bici,Pavia,IT,Comunicare S.r.l.,45.1847248,9.1582069
bici-perugia,Bici Perugia,Perugia,IT,Comunicare S.r.l.,43.1107168,12.3908279
austin,Austin B-cycle,"Austin, TX",US,"BCycle, LLC",30.26408,-97.74355
bike-chattanooga,Bike Chattanooga,"Chattanooga, TN",US,"Motivate International, Inc & PBSC",35.0456297,-85.3096801
piacenza,Mi Muovo in Bici,Piacenza,IT,Comunicare S.r.l.,45.0473754,9.6865813
pinerolo,Pinerolo,Pinerolo,IT,Comunicare S.r.l.,44.8850256,7.3499953
biketown,BIKETOWN,"Portland, OR",US,"Portland Bureau of Transportation (PBOT) & Motivate International, Inc & Social Bicycles Inc.",45.52175423291714,-122.68107935786247
reggio-emilia,Mi Muovo in Bici,Reggio Emilia,IT,Comunicare S.r.l.,44.6989932,10.6296859
britebikes,BRiteBikes,"San Ramon, CA",US,"CycleHop, LLC & Social Bicycles Inc.",37.759444753878,-121.955134881881
boise-greenbike,Boise GreenBike,"Boise, ID",US,ValleyRide & Social Bicycles Inc.,43.6153060610528,-116.201761349309
boulder,Boulder B-cycle,"Boulder, CO",US,"BCycle, LLC",40.00811,-105.26385
breeze-bike-share,Breeze Bike Share,"Santa Monica, CA",US,"CycleHop, LLC & Social Bicycles Inc.",34.01780925008178,-118.4965717792511
rimini,Mi Muovo in Bici,Rimini,IT,Comunicare S.r.l.,44.0570817,12.5646003
broward,Broward B-cycle,"Fort Lauderdale, FL",US,"BCycle, LLC",26.12026,-80.14819
bublr-bikes,Bublr Bikes,"Milwaukee, WI",US,"BCycle, LLC",43.0369,-87.89667
reddy-bike-share,Reddy Bike Share,"Buffalo, NY",US,Shared Mobility Inc. & Social Bicycles Inc.,42.89373841865211,-78.8718044757843
capital-bikeshare,Capital BikeShare,"Washington, DC",US,"Motivate International, Inc. & PBSC Urban Solutions",38.8967584,-77.03701629999999
charlotte,Charlotte B-cycle,"Charlotte, NC",US,"BCycle, LLC",35.22716,-80.83855
saluzzo,Saluzzo,Saluzzo,IT,Comunicare S.r.l.,44.6445404,7.492735499999999
cincy-red-bike,Cincy Red Bike,"Cincinnati, OH",US,"BCycle, LLC",39.10138,-84.51217
savigliano,Savigliano,Savigliano,IT,Comunicare S.r.l.,44.6470327,7.662463499999999
citi-bike-nyc,Citi Bike,"New York, NY",US,"NYC Bike Share, LLC & Motivate International, Inc. & PBSC Urban Solutions",40.7143528,-74.00597309999999
coast-bike-share,Coast Bike Share,"Tampa, FL",US,"CycleHop, LLC & Social Bicycles Inc.",27.9627193250593,-82.438056400783
terni,Terni,Terni,IT,Comunicare S.r.l.,42.5636168,12.6426604
cogo,CoGo,"Columbus, OH",US,"Motivate International, Inc. & PBSC Urban Solutions",39.983333,-82.983333
denver,Denver B-cycle,"Denver, CO",US,"BCycle, LLC",39.72055,-104.95253
divvy,Divvy,"Chicago, IL",US,"Motivate International, Inc. & PBSC Urban Solutions",41.8781136,-87.6297982
tirano-in-bici,Tirano in Bici,Tirano,IT,Comunicare S.r.l.,46.216168,10.1696056
elpaso,El Paso B-cycle,"El Paso, TX",US,"BCycle, LLC",31.76148,-106.48507
fortworth,Fort Worth Bike Sharing,"Fort Worth, TX",US,"BCycle, LLC",32.7516,-97.32888
udine,Udine,Udine,IT,Comunicare S.r.l.,46.0710668,13.2345794
greatrides,Great Rides Bike Share,"Fargo, ND",US,"BCycle, LLC",46.89248,-96.80095
greenbikeslc,GREENbike,Salt Lake City,US,"BCycle, LLC",40.76745,-111.88736
grid-bike-share,Grid Bike Share,"Phoenix, AZ",US,"CycleHop, LLC & Social Bicycles Inc.",33.4591031356657,-112.074010667085
omaha,Heartland B-cycle,"Omaha, NE",US,"BCycle, LLC",41.25832,-96.00853
houston,Houston B-cycle,"Houston, TX",US,"BCycle, LLC",29.75983,-95.36949
blue-bikes,Blue Bikes,"Boston, MA",US,"Motivate International, Inc. & PBSC Urban Solutions",42.3584308,-71.0597732
ustica,Ustica,Ustica,IT,Comunicare S.r.l.,38.7031179,13.1682675
indego,Indego,"Philadelphia, PA",US,"City of Philadelphia & Bicycle Transit Systems & BCycle, LLC",39.95378,-75.16374
indiana-pacers-bikeshare,Indiana Pacers Bikeshare,"Indianapolis, IN",US,"BCycle, LLC",39.76593,-86.16216
juice-bike-share,Juice,"Orlando, FL",US,"CycleHop, LLC & Social Bicycles Inc.",28.536663311743688,-81.37922197580338
bici-co,BICI&CO,Como,IT,Comunicare S.r.l.,45.8080597,9.0851765
kansascity,B-cycle,"Kansas City, MO",US,"BCycle, LLC",39.0999,-94.5857
linkdayton,Link,"Dayton, OH",US,"BCycle, LLC",39.75626,-84.21119
madison,B-cycle,"Madison, WI",US,"BCycle, LLC",43.07571,-89.38527
metro-bike-share,Metro Bike Share,"Los Angeles, CA",US,"Los Angeles County Metropolitan Transportation Authority (Metro) & Bicycle Transit Systems & BCycle, LLC",34.04855,-118.25905
mountain-rides-bike-share,Mountain Rides Bike Share,"Ketchum / Sun Valley, ID",US,Mountain Rides & Social Bicycles Inc.,43.5194695168239,-114.317415758737
nice-ride,Nice Ride,"Minneapolis, MN",US,Nice Ride Minnesota,44.983334,-93.26666999999999
speziainbici,Speziainbici,La Spezia,IT,Comunicare S.r.l.,44.1024504,9.824082599999999
sanantonio,SWell Cycle,"San Antonio, TX",US,"BCycle, LLC",29.43701,-98.48236
share-a-bull-bikes,Share-a-Bull Bikes,"University of South Florida, FL",US,Social Bicycles Inc.,28.060548696070995,-82.4076198041439
venezia,Venezia,Venezia,IT,Comunicare S.r.l.,45.4408474,12.3155151
sobi-long-beach,SoBi,"Long Beach, NY",US,Social Bicycles Inc.,40.5833058203002,-73.6482682794673
spartanburg,Spartanburg BCycle,"Spartanburg, SC",US,"BCycle, LLC",34.94867,-81.93345
topeka-metro-bikes,Topeka Metro Bikes,"Topeka, KS",US,Topeka Metropolitan Transit Authority & Social Bicycles Inc.,39.0337646098385,-95.7027213202284
to-bike,[TO]BIKE,Torino,IT,Comunicare S.r.l.,45.07098200000001,7.685676
ubike,UBike,"University of Virginia, VA",US,Social Bicycles Inc.,38.0357625021372,-78.5072994363201
relay-atlanta,Relay Bike Share,"Atlanta, GA",US,"CycleHop, LLC & Social Bicycles Inc",33.7627941119619,-84.38727110624313
bikerecife,BikeRecife,Recife,BR,Tembici & PBSC Urban Solutions,-8.047129,-34.873437
bikesampa,BikeSampa,São Paulo,BR,Tembici & PBSC Urban Solutions,-23.55,-46.6333
bikerio,BikeRio,Rio de Janeiro,BR,Tembici & PBSC Urban Solutions,-22.904315,-43.184776
bikesalvador,BikeSalvador,Salvador,BR,Tembici & PBSC Urban Solutions,-12.973959,-38.508171
bikepoa,BikePOA,Porto Alegre,BR,Tembici & PBSC Urban Solutions,-30.033079,-51.23654
mibici-guadalajara,MIBICI,Guadalajara,MX,BKT bici publica S.A. de C.V. & PBSC Urban Solutions,20.6737883,-103.3704325
edinburgh-cycle-hire,Just Eat Cycles,Edinburgh,UK,Your Bike & Urban Sharing,55.9411885,-3.2753783
melbourne-bike-share,Melbourne Bike Share,Melbourne,AU,"PBSC & Alta Bicycle Share, Inc",-37.814107,144.96328
libelo,Libélo,Valence,FR,PBSC Urban Solutions,44.922726,4.905634
bikesantiago,BikeSantiago,Santiago,CL,Tembici & PBSC Urban Solutions,-33.45,-70.67
le-velo-star,LE vélo Star,Rennes,FR,Keolis & Rennes Metropole,48.114167,-1.680833
v3-bordeaux,V³,Bordeaux,FR,Keolis Bordeaux Métropole,44.837789,-0.57918
vlille,V'Lille,Lille,FR,Keolis,50.62925,3.057256
idecycle,IDECycle,Pau,FR,Keolis & STAP,43.2951,-0.370797
bicialtea,Bicialtea,Altea,ES,Labici Bicicletas Públicas SL,38.6029075,-0.0450666
bicidorm,Bicidorm,Benidorm,ES,Labici Bicicletas Públicas SL,38.5410566,-0.1224937
saforbici,SaforBici,Gandía,ES,Labici Bicicletas Públicas SL,38.968032,-0.1844671
ciclopi,Ciclopi,Pisa,IT,Comunicare S.r.l.,43.7228386,10.4016888
gbici,Gbici,Getafe,ES,Labici Bicicletas Públicas SL,40.3082504,-3.7323934
muybici,MuyBici,Murcia,ES,Labici Bicicletas Públicas SL,37.9922399,-1.1306544
ponfemobi,PonfeMobi,Ponferrada,ES,Labici Bicicletas Públicas SL,42.5499958,-6.598259000000001
vaibike,VaiBike,Vilagarcía de Arousa,ES,Labici Bicicletas Públicas SL,42.5999265,-8.7885744
cagliari,Cagliari,Cagliari,IT,Comunicare S.r.l.,39.220817,9.121399
ecobici-buenos-aires,Ecobici,Buenos Aires,AR,Buenos Aires Ciudad,-34.630665,-58.41156
gira,Gira,Lisbon,PT,EMEL,38.724954,-9.149334
gimme-bike,Gimme Bike,Varese,IT,Comunicare S.r.l.,45.8183902,8.823913
cyclic,cy'clic,Rouen,FR,JCDecaux,49.44323199999999,1.099971
velo,Vélô,Toulouse,FR,JCDecaux,43.604652,1.444209
veloh,Veloh,Luxembourg,LU,JCDecaux,49.6301025,6.1520185
valenbisi,Valenbisi,Valencia,ES,JCDecaux,39.4699075,-0.3762881
sellero,Sellero,Sellero,IT,Comunicare S.r.l.,46.06304765446406,10.353434085845947
goeteborg,Styr & Ställ,Göteborg,SE,JCDecaux,57.70887,11.97456
lundahoj,Lundahoj,Lund,SE,JCDecaux,55.7046601,13.1910073
ugento,Ugento,Ugento,IT,Comunicare S.r.l.,39.9273518,18.1582962
tusbic,Tusbic,Santander,ES,JCDecaux,43.46230569999999,-3.8099803
velam,Velam,Amiens,FR,JCDecaux,49.894067,2.295753
bysykkel-lillestrom,Bysykkel,Lillestrøm,NO,JCDecaux,59.9559696,11.0503785
velocite-mulhouse,VéloCité,Mulhouse,FR,JCDecaux,47.750839,7.335888
prata-camportaccio,Prata Camportaccio,Prata Camportaccio,IT,Comunicare S.r.l.,46.3042146,9.3964914
velov,Vélo'V,Lyon,FR,JCDecaux,45.764043,4.835659
bicikelj,Bicikelj,Ljubljana,SI,JCDecaux,46.05645089999999,14.5080702
civitavecchia,Civitavecchia,Civitavecchia,IT,Comunicare S.r.l.,42.0937524,11.7922462
sevici,Sevici,Sevilla,ES,JCDecaux,37.3880961,-5.9823299
longanoinbici,LonganoinBici,Barcellona Pozzo di Gotto,IT,Comunicare S.r.l.,38.149812517944284,15.212116241455078
li-bia-velo,Li bia velo,Namur,BE,JCDecaux,50.465328,4.867665
velostanlib,vélOstan'lib,Nancy,FR,JCDecaux,48.692054,6.184417
cristolib,Cristolib,Créteil,FR,JCDecaux,48.790367,2.455572
villo,villo,Bruxelles,BE,JCDecaux,50.8503396,4.3517103
cassano-d-adda,Cassano d'Adda,Cassano d'Adda,IT,Comunicare S.r.l.,45.5309616,9.5155813
velo2,Velo2,Cergy,FR,JCDecaux,49.03561699999999,2.060325
vilnius-cyclocity,Cyclocity,Vilnius,LT,JCDecaux,54.6871555,25.2796514
toyama-cyclocity,cyclocity,富山市,JP,JCDecaux,36.6959518,137.2136768
velik,Veli'k,Казань,RU,JCDecaux,55.7949414,49.1050445
bianzone-in-bici,Bianzone in Bici,Bianzone,IT,Comunicare S.r.l.,46.188197,10.109354
le-velo,Le vélo,Marseille,FR,JCDecaux,43.296482,5.36978
bicloo,Bicloo,Nantes,FR,JCDecaux,47.218371,-1.553621
velocite-besancon,VéloCité,Besançon,FR,JCDecaux,47.237829,6.024053899999999
rietinbici,Rietinbici,Rieti,IT,Comunicare S.r.l.,42.40262397383167,12.86099910736084
dublinbikes,dublinbikes,Dublin,IE,JCDecaux,53.3498053,-6.2603097
citycycle,CityCycle,Brisbane,AU,JCDecaux,-27.4710107,153.0234489
adcb-bikeshare,ADCB Bikeshare,Abu Dhabi,AE,Cyacle Bicycle Rental LLC,24.450278,54.39
castellucchio,Castellucchio,Castellucchio,IT,Comunicare S.r.l.,45.15047821582959,10.651202201843262
velobleu,Vélo Bleu,Nice,FR,Veolia,43.695949,7.271413
notoinbici,NotoinBici,Noto,IT,Comunicare S.r.l.,36.889437754839854,15.074658393859863
enna,Enna,Enna,IT,Comunicare S.r.l.,37.56342572664775,14.27973747253418
pordenone,Pordenone,Pordenone,IT,Comunicare S.r.l.,45.94790101663391,12.674491020251475
vel-in,Vél'in,Calais,FR,Veolia,50.95,1.85
carbonia,Carbonia,Carbonia,IT,Comunicare S.r.l.,39.167222,8.522222
clujbike,Cluj Bike,Cluj-Napoca,RO,Municipiul Cluj-Napoca,46.775,23.5975
mobike,MoBike,Genova,IT,Comunicare S.r.l.,44.40430089372731,8.92908986230462
integrabike,Integrabike,Sorocaba,BR,Prefeiture de Sorocaba & Urbes,-23.5015,-47.4526
scegli-in-bici,Scegli in Bici,Cremona,IT,Comunicare S.r.l.,45.134914104864116,10.0222648619018
rivibike,RiviBike,São Lourenço,BR,Associação dos Amigos da Riviera de São Lourenço & Sobloco,-22.1124,-45.028
e-motion-trento,e.motion,Trento,IT,Comunicare S.r.l.,46.06643205823519,11.122145390351879
dukebike,DukeBike,Ipaússu,BR,Duke Energy Brasil & Governo de Ipaussu,-23.0553,-49.6237
e-motion-pergine-valsugana,e.motion,Pergine Valsugana,IT,Comunicare S.r.l.,46.06050419001399,11.239041694195503
bicing,Bicing,Barcelona,ES,"Barcelona de Serveis Municipals, S.A. (BSM) & CESPA & PBSC",41.3850639,2.1734035
baksi-antalya,Baksi,Antalya,TR,Baksi Bike Sharing System,36.862048,30.638866
baksi-bisim,Baksi,Izmir,TR,Baksi Bike Sharing System,38.4134047464,27.0325753524
e-motion-rovereto,e.motion,Rovereto,IT,Comunicare S.r.l.,45.88710661061543,11.042242751867644
baksi-istanbul,Isbike,Istanbul,TR,Baksi Bike Sharing System,40.9696887925,29.0475373717
baksi-kobis,Baksi,Kocaeli,TR,Baksi Bike Sharing System,40.7674733342,29.9755885985
citybike-wien,Citybike Wien,Wien,AT,Gewista Werbegesellschaft m.b.H,48.2081743,16.3738189
citybikes-helsinki,City bikes,Helsinki,FI,Helsinki City Transport & Helsinki Regional Transport & CityBikeFinland & Smoove SAS & Moventia & Alepa,60.16985569999999,24.938379
monopoli-bike,Monopoli BIKE,Monopoli,IT,Comunicare S.r.l.,40.94519109440738,17.311687995336918
foli,Föli-fillari,Turku,FI,Turku Region Traffic Föli & Nextbike Polska,60.4506,22.2666
bicileon,Bicileon,León,ES,ITCL,42.5987263,-5.5670959
bicimia,BiciMia,Brescia,IT,Comunicare S.r.l.,45.5398382,10.2229562
telofun,Tel-O-Fun,"Tel Aviv-Yaffo, Giv'atayim, Ramat-Gan",IL,FSM Ground Services Ltd.,32.087053,34.789776
andria,Andria in Bici,Andria,IT,Comunicare S.r.l.,41.224346932834,16.296983922753956
whitebikes,WhiteBikes,Bratislava,SK,Open Source Bike Share,48.149424,17.113922
slovnaft-bajk,Slovnaft BAjk,Bratislava,SK,"Dopravný podnik Bratislava & Bratislavská integrovaná doprava, a.s. & Hlavné mesto SR Bratislava",48.1356952,16.9758332
cykl,Cykl,Wageningen,NL,Open Source Bike Share,51.974,5.6671
bicyklezadobreskutky,Bicykle za dobré skutky,Prešov,SK,Open Source Bike Share,48.996275,21.234341
socialbicycles-wavelo,Wavelo,Kraków,PL,Social Bicycles Inc.,50.06143,19.93658
bicinquartucciu,BicinQuartucciu,Quartucciu,IT,Comunicare S.r.l.,39.25043149806156,9.179296426489255
mvgmeinrad,MVGmeinrad,Mainz,DE,Mainzer Verkehrsgesellschaft mbH (MVG),49.992862,8.247253
encicla,EnCicla,Medellin,CO,Sistema de Bicicletas Públicas del Valle de Aburrá,6.254942,-75.567982
olbia-bike,Olbia Bike,Olbia,IT,Comunicare S.r.l.,40.9240543,9.4994397
mobibikes,Mobi,Vancouver,CA,Vanncouver Bike Share Inc & CycleHop LLC & City of Vancouver & Smoove SAS,49.2827,-123.1207
savona,Savona,Savona,IT,Comunicare S.r.l.,44.29516444397244,8.463126708984431
c-velo,C.vélo,Clermont-Ferrand,FR,CityBike France & PBSC Urban Solutions,45.7831,3.0824
velivert,VéliVert,Saint-Étienne,FR,Smoove,45.396667,4.290833
brindisi,BrindisiByBike,Brindisi,IT,Comunicare S.r.l.,40.637580319936106,17.940774547082572
velopop,Vélopop,Avignon,FR,Smoove,43.943689,4.805833
batumvelo,Batumvelo,Batumi,GE,Smoove,41.660906,41.678835
tradate,Tradate,Tradate,IT,Comunicare S.r.l.,45.70938576720161,8.915993391601548
bikebh,BikeBH,Belo Horizonte,BR,Mobilicidade Tecnologia LTD & Grupo Serttel LTDA,-19.920793,-43.922165
bikepetrolina,BikePetrolina,Petrolina,BR,Mobilicidade Tecnologia LTD & Grupo Serttel LTDA,-9.389049,-40.502751
jesinbici,JesinBici,Jesi,IT,Comunicare S.r.l.,43.522601,13.244448
nbici,nbici,Pamplona,ES,Comunicare S.r.l.,42.8116631,-1.6482653
bikebrasilia,BikeBrasilia,Brasília,BR,Mobilicidade Tecnologia LTD & Grupo Serttel LTDA,-15.795115,-47.887424
debikegoiania,GynDebike,Goiânia,BR,Mobilicidade Tecnologia LTD & Grupo Serttel LTDA,-16.670492,-49.259535
treviso,Treviso,Treviso,IT,Comunicare S.r.l.,45.6669011,12.243039
bicicletar,Bicicletar,Fortaleza,BR,Mobilicidade Tecnologia LTD & Grupo Serttel LTDA,-3.7321944,-38.510347
cajubike,CajuBike,Aracajú,BR,Mobilicidade Tecnologia LTD & Grupo Serttel LTDA,-10.987263,-37.051898
bikebelem,Bike Belém,Belém,BR,Mobilicidade Tecnologia LTD & Grupo Serttel LTDA,-1.4600794,-48.490865
sondrio,Sondrio,Sondrio,IT,Comunicare S.r.l.,46.1698583,9.8787674
bikesantos,BikeSantos,Santos,BR,Mobilicidade Tecnologia LTD & Grupo Serttel LTDA,-23.954052,-46.333345
vercelli,Vercelli,Vercelli,IT,Comunicare S.r.l.,45.32022720000001,8.418573499999999
portofino-park-and-bike,Portofino Park and Bike,Santa Margherita Ligure - Portofino - Camogli,IT,Comunicare S.r.l.,44.335084,9.211264
mibicitubici,Mi bici tu bici,Rosario,AR,Mobilicidade Tecnologia LTD & Municipalidad de Rosario,-32.95,-60.65
decobike-miami-beach,Citi Bike Miami,"Miami Beach, FL",US,DecoBike LLC,25.790654,-80.1300455
decobike-san-diego,Decobike San Diego,"San Diego, CA",US,DecoBike LLC,32.715738,-117.1610838
meglio-in-bici,Meglio in Bici,Cernusco sul Naviglio - Pioltello - Carugate,IT,Comunicare S.r.l.,45.520541,9.341984
battlecreek,Battle Creek B-cycle,"Battle Creek, MI",US,Trek Bicycle Corporation & Humana & Crispin Porter + Bogusky,42.32423,-85.18833
desmoines,Des Moines B-cycle,"Des Moines, IA",US,Trek Bicycle Corporation & Humana & Crispin Porter + Bogusky,41.6005448,-93.6091064
ossola,Comunità Montana Valli dell'Ossola,Santa Maria Maggiore - Malesco - Villette,IT,Comunicare S.r.l.,46.127196,8.499169
greenville,Greenville B-cycle,"Greenville, SC",US,Trek Bicycle Corporation & Humana & Crispin Porter + Bogusky,34.85261759999999,-82.3940104
bicincitta-mezzolombardo,Bicincittà,Mezzolombardo,IT,Comunicare S.r.l.,46.21400260000001,11.0967867
nashville,Nashville B-cycle,"Nashville, TN",US,Trek Bicycle Corporation & Humana & Crispin Porter + Bogusky,36.1666667,-86.7833333
bicincitta-lausanne-campus-morges,Bicincittà,Lausanne - Morges - Campus,CH,Comunicare S.r.l.,46.5196535,6.6322734
columbia-county,Columbia County B-cycle,"Evans, GA",US,Trek Bicycle Corporation & Humana & Crispin Porter + Bogusky,33.5375,-82.127778
bicincitta-scafati,Bicincittà,Scafati,IT,Comunicare S.r.l.,40.7620174,14.5363969
catbike,CAT Bike,"Savannah, GA",US,Trek Bicycle Corporation & Humana & Crispin Porter + Bogusky,32.016667,-81.116667
bicincitta-livorno,Bicincittà,Livorno,IT,Comunicare S.r.l.,43.548473,10.3105674
rapid-city,Rapid City B-cycle,"Rapid City, SD",US,Trek Bicycle Corporation & Humana & Crispin Porter + Bogusky,44.076,-103.228
bicincitta-valais-central,Bicincittà,Sion,CH,Comunicare S.r.l.,46.2331221,7.360625999999999
bicincitta-forli,Mi Muovo in Bici,Forlì,IT,Comunicare S.r.l.,44.2227398,12.0407312
bicincitta-rivarolo-canavese,Bicincittà,Rivarolo Canavese,IT,Comunicare S.r.l.,45.306633,7.723242
bicincitta-monserrato,Bicincittà,Monserrato,IT,Comunicare S.r.l.,39.2560191,9.1453579
bicincitta-mezzocorona,Bicincittà,Mezzocorona,IT,Comunicare S.r.l.,46.2339047,11.1277461
bicincitta-san-lazzaro-di-savena,Mi Muovo in Bici,San Lazzaro di Savena,IT,Comunicare S.r.l.,44.4702725,11.409399
bicincitta-san-teodoro,Bicincittà,San Teodoro,IT,Comunicare S.r.l.,40.7722837,9.6695458
bicincitta-parco-molentargius-saline,Bicincittà,Parco Naturale Molentargius - Saline,IT,Comunicare S.r.l.,39.2052545,9.146761099999999
parkinbici,Parkinbici,Parco Nazionale del Gargano,IT,Comunicare S.r.l.,41.7817081,15.8516421
bicincitta-gallipoli,Bicincittà,Gallipoli,IT,Comunicare S.r.l.,40.0558554,17.9925085
bicincitta-castel-guelfo-the-style-outlets,Bicincittà,Castel Guelfo di Bologna,IT,Comunicare S.r.l.,44.4328527,11.6750857
bicincitta-san-michele-alladige,Bicincittà,San Michele All'adige,IT,Comunicare S.r.l.,46.1878653,11.1330423
bicincitta-agglo-fribourg,Bicincittà,Fribourg,CH,Comunicare S.r.l.,46.8064773,7.161971899999999
bicincitta-modena,Mi Muovo in bici,Modena,IT,Comunicare S.r.l.,44.647128,10.9252269
bicincitta-brancaleone,Bicincittà,Brancaleone,IT,Comunicare S.r.l.,37.9679084,16.0757749
bicincitta-bulle,Bicincittà,Bulle,CH,Comunicare S.r.l.,46.6154512,7.057726799999999
bicincitta-riviera,Bicincittà,Distretto della Riviera-Pays-d'Enhaut,CH,Comunicare S.r.l.,46.4628333,6.8419192
bicincitta-scandiano,Mi Muovo in Bici,Scandiano,IT,Comunicare S.r.l.,44.5982342,10.6909273
bicincitta-elmas,Bicincittà,Elmas,IT,Comunicare S.r.l.,39.2634329,9.0515805
bicincitta-tivat,Bicincittà,TV,ME,Comunicare S.r.l.,42.4349809,18.7066398
bicincitta-acquaviva-delle-fonti,Bicincittà,Acquaviva delle fonti,IT,Comunicare S.r.l.,40.9303721,16.8414374
we-love-bike,We Love bike,Lodi,IT,Comunicare S.r.l.,45.3097228,9.503715999999999
bicincitta-acquarica-del-capo,Bicincittà,Acquarica del Capo,IT,Comunicare S.r.l.,39.9144573,18.2450324
bicincitta-vicolungo-the-style-outlets,Bicincittà,Vicolungo,IT,Comunicare S.r.l.,45.47167229999999,8.4633922
bicincitta-porto-torres,Bicincittà,Porto Torres,IT,Comunicare S.r.l.,40.8333682,8.402292899999999
bicincitta-cisterna-di-latina,Bicincittà,Cisterna di Latina,IT,Comunicare S.r.l.,41.5754029,12.8284772
bicincitta-casaletto-spartano,Bicincittà,Casaletto Spartano,IT,Comunicare S.r.l.,40.1532801,15.6211479
bicincitta-selargius,Bicincittà,Selargius,IT,Comunicare S.r.l.,39.2596768,9.1629372
bicincitta-yverdon-les-bains,Bicincittà,Yverdon-les-Bains,CH,Comunicare S.r.l.,46.7784736,6.641183
bicincitta-monza,Bicincittà,Monza,IT,Comunicare S.r.l.,45.5845001,9.2744485
bicincitta-la-cote,Bicincittà,Nyon,CH,Comunicare S.r.l.,46.3832683,6.2347852
bicincitta-morigerati,Bicincittà,Morigerati,IT,Comunicare S.r.l.,40.1422031,15.5298525
bicincitta-san-donato-milanese,Bicincittà,San Donato Milanese,IT,Comunicare S.r.l.,45.4092402,9.2684867
bicincitta-chablais,Bicincittà,Monthey - Aigle,CH,Comunicare S.r.l.,46.2521873,6.9469598
bicincitta-ente-parco-del-circeo,Bicincittà,Parco Nazionale del Circeo,IT,Comunicare S.r.l.,41.3151015,13.0330782
bicincitta-cesena,Mi Muovo in bici,Cesena,IT,Comunicare S.r.l.,44.1396438,12.2464292
bicincitta-lugano-paradiso,Bicincittà,Paradiso,CH,Comunicare S.r.l.,45.9907174,8.945261799999999
lecco,Bicincittà,Lecco,IT,Comunicare S.r.l.,45.8565698,9.397670399999999
bicincitta-alghero,Bicincittà,Alghero,IT,Comunicare S.r.l.,40.5579517,8.319294900000001
bicincitta-san-giovanni-in-persiceto,Mi Muovo in Bici,San Giovanni in Persiceto,IT,Comunicare S.r.l.,44.6405433,11.1893053
bicincitta-ente-parco-san-rossore,Bicincittà,Parco naturale Migliarino San Rossore Massaciuccoli,IT,Comunicare S.r.l.,43.723826,10.339509
bicincitta-treviglio,Bicincittà,Treviglio,IT,Comunicare S.r.l.,45.5293372,9.591435899999999
bicincitta-lavis,Bicincittà,Lavis,IT,Comunicare S.r.l.,46.1408423,11.1124935
bicincitta-les-lacs-romont,Bicincittà,Murten,CH,Comunicare S.r.l.,46.92922110000001,7.120184
bicincitta-ente-parco-di-montemarcello-magra,Bicincittà,Ente Parco Montemarcello Magra,IT,Comunicare S.r.l.,44.1143897,9.9635986
bicischio,BiciSchio,Schio,IT,Comunicare S.r.l.,45.7170517,11.3597702
bicincitta-imola,Mi Muovo in bici,Imola,IT,Comunicare S.r.l.,44.3559128,11.7161197
nextbike-leipzig,Nextbike,Leipzig,DE,Nextbike GmbH,51.3415,12.3625
norisbike-nurnberg,NorisBike,Nürnberg,DE,Nextbike GmbH,49.4479,11.0814
nextbike-wiesbaden,Nextbike,Wiesbaden,DE,Nextbike GmbH,50.0709,8.24322
visa-frankfurt,VISA,Frankfurt,DE,Nextbike GmbH,50.1072,8.66375
kvb-rad-koln,KVB Rad,Köln,DE,Nextbike GmbH,50.9429,6.95649
facherrad-karlsruhe,Fächerrad,Karlsruhe,DE,Nextbike GmbH,49.0102,8.41827
burgenland-neusiedler-see,Burgenland,Neusiedler See,AT,Nextbike GmbH,47.839,16.761
nextbike-offenbach-am-main,Nextbike,Offenbach am Main,DE,Nextbike GmbH,50.1093,8.73825
nextbike-auckland,Nextbike,Auckland,NZ,Nextbike GmbH,-36.8603,174.763
nextbike-magdeburg,Nextbike,Magdeburg,DE,Nextbike GmbH,52.1268,11.6342
nextbike-hamburg,Nextbike,Hamburg,DE,Nextbike GmbH,53.5506,9.99052
nextbike-dusseldorf,Nextbike,Düsseldorf,DE,Nextbike GmbH,51.2243,6.77204
nextbike-stpolten,Nextbike,St.Pölten,AT,Nextbike GmbH,48.2058,15.6232
nextbike-modling,Nextbike,Mödling,AT,Nextbike GmbH,48.1047,16.3202
nextbike-sursee,Nextbike,Sursee,CH,Nextbike GmbH,47.1713,8.10877
nextbike-tubingen,Nextbike,Tübingen,DE,Nextbike GmbH,48.5203,9.05591
nextbike-luzern,Nextbike,Luzern,CH,Nextbike GmbH,47.0472,8.30446
sixt-riga,SiXT,Rīga,LV,Nextbike GmbH,56.9453,24.1033
metropolradruhr-dortmund,metropolradruhr,Dortmund,DE,Nextbike GmbH,51.5141,7.46255
metropolradruhr-bochum,metropolradruhr,Bochum,DE,Nextbike GmbH,51.4813,7.2133
metropolradruhr-bottrop,metropolradruhr,Bottrop,DE,Nextbike GmbH,51.5263,6.94611
metropolradruhr-duisburg,metropolradruhr,Duisburg,DE,Nextbike GmbH,51.4487,6.77513
metropolradruhr-essen,metropolradruhr,Essen,DE,Nextbike GmbH,51.4425,7.02301
metropolradruhr-gelsenkirchen,metropolradruhr,Gelsenkirchen,DE,Nextbike GmbH,51.5404,7.07039
metropolradruhr-hamm,metropolradruhr,Hamm,DE,Nextbike GmbH,51.6775,7.84836
metropolradruhr-herne,metropolradruhr,Herne,DE,Nextbike GmbH,51.5363,7.21493
metropolradruhr-mulheim-adr,metropolradruhr,Mülheim a.d.R.,DE,Nextbike GmbH,51.4308,6.87401
metropolradruhr-oberhausen,metropolradruhr,Oberhausen,DE,Nextbike GmbH,51.4936,6.85169
nextbike-munchen,Nextbike,München,DE,Nextbike GmbH,48.1358,11.5356
sixt-jurmala,SiXT,Jūrmala,LV,Nextbike GmbH,56.9732,23.8225
nextbike-wachau,Nextbike,Wachau,AT,Nextbike GmbH,48.3188,15.4166
nextbike-tulln,Nextbike,Tulln,AT,Nextbike GmbH,48.3269,16.0569
nextbike-triestingtal,Nextbike,Triestingtal,AT,Nextbike GmbH,47.9421,16.1149
nextbike-thermenregion,Nextbike,Thermenregion,AT,Nextbike GmbH,47.9892,16.2646
nextbike-flensburg,Nextbike,Flensburg,DE,Nextbike GmbH,54.7804,9.43571
wrm-wroclaw,WRM,Wrocław,PL,Nextbike GmbH,51.1097,17.0485
nextbike-romerland,Nextbike,Römerland,AT,Nextbike GmbH,48.0909,16.853
nextbike-offenburg,Nextbike,Offenburg,DE,Nextbike GmbH,48.4721,7.94243
nextbike-wrneustadt,Nextbike,Wr.Neustadt,AT,Nextbike GmbH,47.8167,16.2426
nextbike-potsdam,Nextbike,Potsdam,DE,Nextbike GmbH,52.3997,13.0676
nextbike-gutersloh,Nextbike,Gütersloh,DE,Nextbike GmbH,51.9049,8.39275
nextbike-unteres-traisental,Nextbike,Unteres Traisental,AT,Nextbike GmbH,48.1111,15.8176
nextbike-haag,Nextbike,Haag,AT,Nextbike GmbH,48.0643,14.7368
nextbike-marchfeld,Nextbike,Marchfeld,AT,Nextbike GmbH,48.2407,16.9093
nextbike-10vorwien,Nextbike,10vorWien,AT,Nextbike GmbH,48.3403,16.279
usedomrad-usedom,UsedomRad,Usedom,DE,Nextbike GmbH,53.9779,13.9925
nextbike-norderstedt,Nextbike,Norderstedt,DE,Nextbike GmbH,53.6969,10.002
swa-rad-augsburg,SWA Rad,Augsburg,DE,Nextbike GmbH,48.3647,10.8916
nextbike-traisen-golsental,Nextbike,Traisen-Gölsental,AT,Nextbike GmbH,47.9439,15.639
nextbike-lunz-am-see,Nextbike,Lunz am See,AT,Nextbike GmbH,47.8618,15.0348
nextbike-konya,Nextbike,Konya,TR,Nextbike GmbH,37.8715,32.4957
nextbike-laa-an-der-thaya,Nextbike,Laa an der Thaya,AT,Nextbike GmbH,48.7196,16.3878
nextbike-sudheide,Nextbike,Südheide,AT,Nextbike GmbH,48.1077,16.3937
nextbike-limassol,Nextbike,Limassol,CY,Nextbike GmbH,34.6823,33.0464
prm-poznan,PRM,Poznań,PL,Nextbike GmbH,52.4077,16.9323
nextbike-christchurch,Nextbike,Christchurch,NZ,Nextbike GmbH,-43.5341,172.621
vrn-heidelberg,VRN,Heidelberg,DE,Nextbike GmbH,49.4023,8.67577
vrn-mannheim,VRN,Mannheim,DE,Nextbike GmbH,49.4869,8.45638
nextbike-tullnerfeld-west,Nextbike,Tullnerfeld West,AT,Nextbike GmbH,48.2994,15.9065
stadtrad-innsbruck,Stadtrad,Innsbruck,AT,Nextbike GmbH,47.2632,11.3961
nextbike-nicosia,Nextbike,Nicosia,CY,Nextbike GmbH,35.1728,33.3653
opole-bike-opole,Opole Bike,Opole,PL,Nextbike GmbH,50.6633,17.9239
veturilo-warszawa,VETURILO,Warszawa,PL,Nextbike GmbH,52.2265,21.0127
nextbike-hollabrunn,Nextbike,Hollabrunn,AT,Nextbike GmbH,48.562,16.0785
nextbike-wienerwald,Nextbike,WienerWald,AT,Nextbike GmbH,48.1926,16.141
nextbike-dobrich,Nextbike,Dobrich,BG,Nextbike GmbH,43.567,27.8285
bykystations-uae-dubai,BYKYstations UAE,Dubai,AE,Nextbike GmbH,25.2435,55.2722
nextbike-zagreb,Nextbike,Zagreb,HR,Nextbike GmbH,45.7984,15.9789
ebikestation-bietigheim-bissingen,ebikestation,Bietigheim-Bissingen,DE,Nextbike GmbH,48.9495,9.12518
nextbike-bath,Nextbike,Bath,GB,Nextbike GmbH,51.3793,-2.35279
nextbike-glasgow,Nextbike,Glasgow,GB,Nextbike GmbH,55.8589,-4.25549
belfastbikes-belfast,BelfastBikes,Belfast,GB,Nextbike GmbH,54.5969,-5.92918
nextbike-stirling,Nextbike,Stirling,GB,Nextbike GmbH,56.1165,-3.9369
biker-bialystok-bialystok,BIKER Białystok,Białystok,PL,Nextbike GmbH,53.2655,23.3343
krm-konstancinski-konstancin-jeziorna,KRM Konstanciński,Konstancin Jeziorna,PL,Nextbike GmbH,52.0759,21.1161
grad-sibenik-sibenik,Grad Šibenik,Šibenik,HR,Nextbike GmbH,43.733,15.8982
karbis-seferihisar,KARBIS,Seferihisar,TR,Nextbike GmbH,38.1962,26.8386
lrm-lublin-lublin,LRM Lublin,Lublin,PL,Nextbike GmbH,51.2469,22.5697
ebikestation-schwieberdingen,ebikestation,Schwieberdingen,DE,Nextbike GmbH,48.8723,9.07419
healthy-ride-pittsburgh-pittsburgh,Healthy Ride,Pittsburgh,US,Nextbike GmbH,40.4459,-79.9945
grm-grodzisk-grodzisk-mazowiecki,GRM Grodzisk,Grodzisk Mazowiecki,PL,Nextbike GmbH,52.113,20.6265
nextbike-quickborn,Nextbike,Quickborn,DE,Nextbike GmbH,53.7333,9.90272
jerseybike-hoboken,JerseyBike,Hoboken,US,Nextbike GmbH,40.7447,-74.0341
jerseybike-weehawken,JerseyBike,Weehawken,US,Nextbike GmbH,40.7683,-74.0216
ibike-king-abdullah-economic-city,iBike,King Abdullah Economic City,SA,Nextbike GmbH,22.4053,39.0815
vrn-ludwigshafen,VRN,Ludwigshafen,DE,Nextbike GmbH,49.4741,8.43287
nextbike-university-of-warwick,Nextbike,Warwick,GB,Nextbike GmbH,52.3815,-1.56159
ebikestation-waiblingen,ebikestation,Waiblingen,DE,Nextbike GmbH,48.8333,9.31667
vrn-speyer,VRN,Speyer,DE,Nextbike GmbH,49.3126,8.45295
nextbike-lviv,Nextbike,Lviv,UA,Nextbike GmbH,49.8402,24.0182
nextbike-wurzburg,Nextbike,Würzburg,DE,Nextbike GmbH,49.8,9.93333
skybike-west-palm-beach-west-palm-beach-florida,Skybike,West Palm Beach Florida,US,Nextbike GmbH,26.7125,-80.0821
nextbike-serfaus,Nextbike,Serfaus,AT,Nextbike GmbH,47.0387,10.6048
ebikestation-vaihingen-an-der-enz,ebikestation,Vaihingen an der Enz,DE,Nextbike GmbH,48.9334,8.96121
ebikestation-herrenberg,ebikestation,Herrenberg,DE,Nextbike GmbH,48.595,8.86716
ebikestation-goppingen,ebikestation,Göppingen,DE,Nextbike GmbH,48.7054,9.65125
ebikestation-ludwigsburg,ebikestation,Ludwigsburg,DE,Nextbike GmbH,48.8941,9.19546
grad-gospic-gospic,Grad Gospić,Gospić,HR,Nextbike GmbH,44.5469,15.375
ebikestation-holzgerlingen,ebikestation,Holzgerlingen,DE,Nextbike GmbH,48.6388,9.0096
ebikestation-filderstadt,ebikestation,Filderstadt,DE,Nextbike GmbH,48.6588,9.22585
ebikestation-kirchheim-am-neckar,ebikestation,Kirchheim am Neckar,DE,Nextbike GmbH,49.04,9.14441
ebikestation-schorndorf,ebikestation,Schorndorf,DE,Nextbike GmbH,48.8015,9.52962
ebikestation-fellbach,ebikestation,Fellbach,DE,Nextbike GmbH,48.8166,9.27967
ebikestation-remseck-am-neckar,ebikestation,Remseck am Neckar,DE,Nextbike GmbH,48.8767,9.26179
nextbike-malta,Nextbike,Malta,MT,Nextbike GmbH,35.9192,14.4889
grad-karlovac-karlovac,Grad Karlovac,Karlovac,HR,Nextbike GmbH,45.4905,15.5503
flashfleet-kent-state-university-kent-state-university,Flashfleet Kent State University,Kent State,US,Nextbike GmbH,41.1492,-81.3363
grad-slavonski-brod-slavonski-brod,Grad Slavonski Brod,Slavonski Brod,HR,Nextbike GmbH,45.1656,18.0183
nextbike-london,Nextbike,London,GB,Nextbike GmbH,51.4862,-0.11966
santander-cycles-mk-milton-keynes,Santander Cycles MK,Milton Keynes,GB,Nextbike GmbH,52.0406,-0.759417
bykystations-uae-al-ain,BYKYstations UAE,Al Ain,AE,Nextbike GmbH,24.2989,54.6979
nextbike-hergiswil,Nextbike,Hergiswil,CH,Nextbike GmbH,46.9905,8.30829
grad-makarska-makarska,Grad Makarska,Makarska,HR,Nextbike GmbH,43.2992,17.0184
opcina-brinje-brinje,Općina Brinje,Brinje,HR,Nextbike GmbH,44.9977,15.1258
grad-zadar-zadar,Grad Zadar,Zadar,HR,Nextbike GmbH,44.0058,15.2183
grad-vukovar-vukovar,Nextbike,Vukovar,HR,Nextbike GmbH,45.3575,18.9895
opcina-lastovo-lastovo,Općina Lastovo,Lastovo,HR,Nextbike GmbH,42.7626,16.8719
lodzki-rower-publiczny-lodz,Łódzki Rower Publiczny,Lódź,PL,Nextbike GmbH,51.7689,19.4554
lrm-lublin-swidnik,LRM Lublin,Świdnik,PL,Nextbike GmbH,51.2194,22.6988
vrn-bensheim,VRN,Bensheim,DE,Nextbike GmbH,49.6803,8.6189
grad-ivanic-grad-ivanic-grad,Grad Ivanić-Grad,Ivanic Grad,HR,Nextbike GmbH,45.7062,16.3919
stalowa-wola-miasto-rowerow-stalowa-wola,Stalowa Wola miasto rowerów,Stalowa Wola,PL,Nextbike GmbH,50.57,22.0626
katowice-bike-katowice,Katowice Bike,Katowice,PL,Nextbike GmbH,50.2594,19.0215
bike-s-srm-szczecin,Bike_S SRM,Szczecin,PL,Nextbike GmbH,53.4301,14.5498
ordu-bisikletli-ordu,Ordu Bisikletli,Ordu,TR,Nextbike GmbH,40.9702,37.8707
nextbike-sarajevo,Nextbike,Sarajevo,BA,Nextbike GmbH,43.85,18.39
co-bikes-exeter,Co-bikes,Exeter,GB,Nextbike GmbH,50.7272,-3.53605
rower-gminny-michalowice-michalowice,Rower Gminny Michałowice,Michałowice,PL,Nextbike GmbH,52.1679,20.8877
nextbike-auckland-waterfront,Nextbike,Auckland Waterfront,NZ,Nextbike GmbH,-36.841,174.763
nextbike-berlin,Nextbike,Berlin,DE,Nextbike GmbH,52.5087,13.3563
system-legnicki-rower-miejski-slrm-legnica,System Legnicki Rower Miejski (SLRM),Legnica,PL,Nextbike GmbH,51.2059,16.1667
nextbike-aruba,Nextbike,Aruba,AW,Nextbike GmbH,12.5137,-69.9757
nextbike-hyderabad,Nextbike,Hyderabad,IN,Nextbike GmbH,17.38,78.4725
sixt-jalgrattarent-tallinn,SIXT jalgrattarent,Tallinn,EE,Nextbike GmbH,59.4325,24.7295
veturilo-stacje-sponsorskie-nextbike-veturilo,Stacje Sponsorskie Nextbike Veturilo,Warszawa,PL,Nextbike GmbH,52.2265,21.0127
bike4all-byblos,bike4all,Byblos,LB,Nextbike GmbH,34.1236,35.6511
chartered-bike-bhopal-bhopal,Chartered Bike,Bhopal,IN,Nextbike GmbH,23.2467,77.411
nextbike-rotterdam,Nextbike,Rotterdam,IN,Nextbike GmbH,51.9224,4.47265
wk-bike-bremen-bremen,WK-Bike,Bremen,DE,Nextbike GmbH,53.0781,8.80132
vrn-worms,VRN,Worms,DE,Nextbike GmbH,49.6394,8.34618
nextbike-stans,Nextbike,Stans,CH,Nextbike GmbH,46.9593,8.36836
nextbike-victoria,Nextbike,Victoria,CA,Nextbike GmbH,48.4298,-123.361
nextbike-maastricht,Nextbike,Maastricht,NL,Nextbike GmbH,50.8514,5.69129
nextbike-stansstad,Nextbike,Stansstad,CH,Nextbike GmbH,46.9801,8.34098
byky-bikes-kuwait,BYKY Bikes,Kuwait,KW,Nextbike GmbH,29.3632,47.487
nextbike-horw,Nextbike,Horw,CH,Nextbike GmbH,47.0188,8.30828
vrn-burstadt,VRN,Bürstadt,DE,Nextbike GmbH,49.6461,8.44917
gliwicki-rower-miejski-sgrm-gliwice,Gliwicki Rower Miejski (SGRM),Gliwice,PL,Nextbike GmbH,50.2918,18.669
prm-stacje-sponsorskie-nextbike-prm,Stacje Sponsorskie Nextbike PRM,Poznań,PL,Nextbike GmbH,52.4077,16.9323
nextbike-gross-enzersdorf,Nextbike,Groß Enzersdorf,AT,Nextbike GmbH,48.1986,16.5496
nextbike-klagenfurt,Nextbike,Klagenfurt,AT,Nextbike GmbH,46.6335,14.3085
vrn-kaiserslautern,VRN,Kaiserslautern,DE,Nextbike GmbH,49.4413,7.75566
radomski-rower-miejski-radom,Radomski Rower Miejski,Radom,PL,Nextbike GmbH,51.3994,21.1655
radomski-rower-miejski-stacje-sponsorskie-radom,Stacje Sponsorskie Radom,Radom,PL,Nextbike GmbH,51.3994,21.1655
smartbike-vijayawada-vijayawada,Smartbike Vijayawada,Vijayawada,IN,Nextbike GmbH,16.5109,80.6313
sitycleta-las-palmas-las-palmas-de-gran-canaria,Sitycleta,Las Palmas de Gran Canaria,ES,Nextbike GmbH,28.1236,-15.4366
system-rowerow-miejskich-w-pszczynie-pszczyna,System Rowerów Miejskich w Pszczynie,Pszczyna,PL,Nextbike GmbH,49.9757,18.9463
zgierski-rower-miejski-zgierz,Zgierski Rower Miejski,Zgierz,PL,Nextbike GmbH,51.8602,19.4118
tyski-rower-miejski-tychy,Tyski Rower Miejski,Tychy,PL,Nextbike GmbH,50.1304,18.9436
nextbike-amstetten,Nextbike,Amstetten,AT,Nextbike GmbH,48.1218,14.8774
grad-velika-gorica-velika-gorica,Grad Velika Gorica,Velika Gorica,HR,Nextbike GmbH,45.7161,16.0683
grad-sisak-sisak,Grad Sisak,Sisak,HR,Nextbike GmbH,45.4875,16.3753
nextbike-salzburg,Nextbike,Salzburg ,AT,Nextbike GmbH,47.8014,13.0458
ok-bike-kedzierzyn-kozle,OK Bike,Kędzierzyn-Koźle,PL,Nextbike GmbH,50.3421,18.2049
kolobrzeski-rower-miejski-kolobrzeg,Kołobrzeski Rower Miejski,Kołobrzeg,PL,Nextbike GmbH,54.1762,15.5761
siedlecki-rower-miejski-siedlce,Siedlecki Rower Miejski,Siedlce,PL,Nextbike GmbH,52.1668,22.2891
grad-metkovic-metkovic,Grad Metković,Metković,HR,Nextbike GmbH,43.0654,17.642
jastrebarsko-jastrebarsko,Nextbike,Jastrebarsko,HR,Nextbike GmbH,45.6692,15.6541
grad-drnis-drnis,Nextbike,Drniš,HR,Nextbike GmbH,43.8425,16.1197
nextbike-tuzla,Nextbike,Tuzla,BA,Nextbike GmbH,44.5392,18.675
nextbike-panama,Nextbike,Panama,IN,Nextbike GmbH,8.95284,-79.5369
porec-bike-share-porec,Porec bike share,Poreč,HR,Nextbike GmbH,45.2292,13.6035
arriva-nitra,Arriva,Nitra,SK,Nextbike GmbH,48.3088,18.0783
kaliski-rower-miejski-kalisz,Kaliski Rower Miejski,Kalisz,PL,Nextbike GmbH,51.7608,18.0746
nextbike-marburg,Nextbike,Marburg,DE,Nextbike GmbH,50.8019,8.76444
bubi,MOL Bubi,Budapest,HU,Nextbike GmbH,47.497912,19.040235
nextbike-russelsheim-am-main,Nextbike,Rüsselsheim am Main,DE,Nextbike GmbH,49.9881,8.42142
pruszkowski-rower-miejski-pruszkow,Pruszkowski Rower Miejski,Pruszków,PL,Nextbike GmbH,52.1637,20.8018
rower-miejski-szamotuly-rms-szamotuly,Rower Miejski Szamotuły,Szamotuły,PL,Nextbike GmbH,52.6112,16.5819
nextbike-dordrecht,Nextbike,Dordrecht,NL,Nextbike GmbH,51.7833,4.69391
vrn-heppenheim,VRN,Heppenheim,DE,Nextbike GmbH,49.6431,8.63889
czestochowski-rower-miejski-czestochowa,Częstochowski Rower Miejski,Częstochowa,PL,Nextbike GmbH,50.812,19.1375
rower-miejski-w-ostrowie-wielkopolskim-ostrow-wielkopolski,Rower Miejski w Ostrowie Wielkopolskim,Ostrów Wielkopolski,PL,Nextbike GmbH,51.65,17.8253
jerseybike-bayonne,JerseyBike,Bayonne,US,Nextbike GmbH,40.6668,-74.1154
jerseybike-guttenberg,JerseyBike,Guttenberg,US,Nextbike GmbH,40.792,-74.0035
jerseybike-west-new-york,JerseyBike,West New York,US,Nextbike GmbH,40.7882,-74.0142
dundee-navigogo-dundee,Dundee-Navigogo,Dundee,GB,Nextbike GmbH,56.4623,-2.97071
piaseczynski-rower-miejski-piaseczno,Piaseczyński Rower Miejski,Piaseczno,PL,Nextbike GmbH,52.0733,21.0269
nextbike-kassel,Nextbike,Kassel,DE,Nextbike GmbH,51.3127,9.47975
nextbike-sarnen,Nextbike,Sarnen,CH,Nextbike GmbH,46.8963,8.24614
nextbike-wolfenschiessen,Nextbike,Wolfenschiessen,CH,Nextbike GmbH,46.9079,8.39767
nextbike-oberdorf,Nextbike,Oberdorf,CH,Nextbike GmbH,46.9563,8.3884
jerseybike-north-bergen,JerseyBike,North Bergen,US,Nextbike GmbH,40.8045,-74.0135
nextbike-giessen,Nextbike,Gießen,DE,Nextbike GmbH,50.5943,8.68097
vrn-weinheim,VRN,Weinheim,DE,Nextbike GmbH,49.545,8.66027
biker-bialystok-orlen-bialystok,BIKER Białystok - Orlen,Białystok,PL,Nextbike GmbH,53.1342,23.1485
lrm-lublin-orlen-lublin,LRM Lublin - Orlen,Lublin,PL,Nextbike GmbH,51.2469,22.5697
wrm-orlen-wroclaw,WRM - Orlen,Wrocław,PL,Nextbike GmbH,51.1097,17.0485
lodzki-rower-publiczny-orlen-lodz,Łódzki Rower Publiczny - Orlen,Łódź,PL,Nextbike GmbH,51.7689,19.4554
katowice-bike-orlen-katowice,Katowice Bike - Orlen,Katowice,PL,Nextbike GmbH,50.2594,19.0215
veturilo-orlen-warszawa,VETURILO - Orlen,Warszawa,PL,Nextbike GmbH,52.2265,21.0127
nextbike-cardiff,Nextbike,Cardiff,GB,Nextbike GmbH,51.4848,-3.19062
vrn-hockenheim,VRN,Hockenheim,DE,Nextbike GmbH,49.3227,8.54258
vrn-schwetzingen,VRN,Schwetzingen,DE,Nextbike GmbH,49.3863,8.5756
nextbike-ennetmoos,Nextbike,Ennetmoos,CH,Nextbike GmbH,46.9573,8.3377
vrn-eppelheim,VRN,Eppelheim,DE,Nextbike GmbH,49.4025,8.6331
nextbike-university-of-surrey,Nextbike,Surrey,GB,Nextbike GmbH,51.2422,-0.590594
santander-cycles-swansea-swansea-university,Santander Cycles,Swansea,GB,Nextbike GmbH,51.6106,-3.9764
nextbike-kussnacht-sz,Nextbike,Küssnacht SZ,CH,Nextbike GmbH,47.0856,8.44145
nextbike-erfurt,Nextbike,Erfurt,DE,Nextbike GmbH,50.9785,11.0334
bl-bike-banja-luka,BL bike,Banja Luka,BA,Nextbike GmbH,44.775,17.1994
koszalinski-rower-miejski-koszalin,Koszaliński Rower Miejski,Koszalin,PL,Nextbike GmbH,54.2026,16.1678
sosnowiecki-rower-miejski-sosnowiec,Sosnowiecki Rower Miejski,Sosnowiec,PL,Nextbike GmbH,50.2823,19.1269
zabrzanski-rower-miejski-zabrze,Zabrzański Rower Miejski,Zabrze,PL,Nextbike GmbH,50.3066,18.7864
jerseybike-liberty-state-park,JerseyBike,Liberty State Park,US,Nextbike GmbH,40.7051,-74.052
chartered-bike-bhopal-tata-motors,Chartered Bike,Bhopal,IN,Nextbike GmbH,18.6556,73.813
pobiedziski-rower-gminny-pobiedziska,Pobiedziski Rower Gminny,Pobiedziska,PL,Nextbike GmbH,52.4765,17.2866
lahr-pedelecs-lahr,Nextbike,Lahr,DE,Nextbike GmbH,48.3396,7.87376
berlin-buch-campus-berlin-buch,Berlin-Buch Campus,Berlin,DE,Nextbike GmbH,52.6364,13.5029
nextbike-jastrzebie-zdroj,System Rowerów Miejskich Jastrzębie Zdrój,Jastrzębie-Zdrój,PL,Nextbike GmbH,49.9497,18.599
smartbike-delhi-delhi,Smartbike Delhi,Delhi,IN,Nextbike GmbH,28.6228,77.2084
nextbike-swietochlowice,Nextbike,Świętochłowice,PL,Nextbike GmbH,50.2956,18.9165
piotrkowski-rower-miejski-piotrkow-trybunalski,Piotrkowski Rower Miejski,Piotrków Trybunalski,PL,Nextbike GmbH,51.3992,19.6971
siemianowicki-rower-miejski-siemianowice-slaskie,Siemianowicki Rower Miejski,Siemianowice Śląskie,PL,Nextbike GmbH,50.3031,19.0222
nextbike-turin,Nextbike,Turin,DE,Nextbike GmbH,45.0674,7.66631
plocki-rower-miejski-prm-plock,Płocki Rower Miejski,Płock,PL,Nextbike GmbH,52.5421,19.7081
lviv-kharkiv,Nextbike,Kharkiv,UA,Nextbike GmbH,49.9795,36.2563
ciechanowski-rower-miejski-ciechanow,Ciechanowski Rower Miejski,Ciechanów,PL,Nextbike GmbH,52.8763,20.6102
lviv-odessa,Nextbike,Odessa,UA,Nextbike GmbH,46.463,30.7042
otwocki-rower-miejski-otwock,Otwocki Rower Miejski,Otwock,PL,Nextbike GmbH,52.1083,21.2661
tychowski-rower-miejski-tychowo,Tychowski Rower Miejski,Tychowo,PL,Nextbike GmbH,53.9395,16.2306
zielonogorski-rower-miejski-zielona-gora,Zielonogórski Rower Miejski,Zielona Góra,PL,Nextbike GmbH,51.9381,15.5048
santander-monchengladbach,Santander Mönchengladbach,Mönchengladbach,DE,Nextbike GmbH,51.1817,6.43578
nomagobikes-celje,NomagoBikes,Celje,SI,Nextbike GmbH,46.2388,15.2693
bilbon-bizi,BilbonBizi,Bilbao,ES,Nextbike GmbH,43.2752,-2.93528
tychowski-rower-miejski-atrakcje-turystyczne-tychowo,Atrakcje turystyczne Tychowo,Tychowo,PL,Nextbike GmbH,53.9294,16.2467
nomagobikes-lasko,NomagoBikes,Laško,SI,Nextbike GmbH,46.1458,15.2312
nextbike-lippstadt,Nextbike,Lippstadt,DE,Nextbike GmbH,51.6755,8.34394
bikekia-zilina,BikeKia,Žilina,SK,Nextbike GmbH,49.2217,18.7572
koninski-rower-miejski-konin,Koniński Rower Miejski,Konin,PL,Nextbike GmbH,52.2284,18.2553
nextbike-vinnytsia,Nextbike,Vinnytsia,UA,Nextbike GmbH,49.2328,28.4625
nextbike-bonn,Nextbike,Bonn,DE,Nextbike GmbH,50.7367,7.09541
tarnowski-rower-miejski-tarnow,Tarnowski Rower Miejski,Tarnów,PL,Nextbike GmbH,50.0113,20.9728
kolo-marek-marki,Koło Marek,Marki,PL,Nextbike GmbH,52.3256,21.1089
zyrardowski-rower-miejski-zyrardow,Żyrardowski Rower Miejski,Żyrardów,PL,Nextbike GmbH,52.0503,20.4464
kajteroz-chorzowski-rower-miejski-chorzow,Kajteroz - Chorzowski Rower Miejski,Chorzów,PL,Nextbike GmbH,50.2969,18.9551
rowerowe-lodzkie-rl-koluszki,Rowerowe Łódzkie,Koluszki,PL,Nextbike GmbH,51.7401,19.835
rowerowe-lodzkie-rl-lask,Rowerowe Łódzkie,Łask,PL,Nextbike GmbH,51.5893,19.142
rowerowe-lodzkie-rl-lowicz,Rowerowe Łódzkie,Łowicz,PL,Nextbike GmbH,52.1057,19.9381
rowerowe-lodzkie-rl-pabianice,Rowerowe Łódzkie,Pabianice,PL,Nextbike GmbH,51.6651,19.3548
rowerowe-lodzkie-rl-sieradz,Rowerowe Łódzkie,Sieradz,PL,Nextbike GmbH,51.5902,18.7382
rowerowe-lodzkie-rl-skierniewice,Rowerowe Łódzkie,Skierniewice,PL,Nextbike GmbH,51.9539,20.1469
rowerowe-lodzkie-rl-zdunska-wola,Rowerowe Łódzkie,Zduńska Wola,PL,Nextbike GmbH,51.6011,18.938
rowerowe-lodzkie-rl-zgierz,Rowerowe Łódzkie,Zgierz,PL,Nextbike GmbH,51.8551,19.4068
rowerowe-lodzkie-rl-kutno,Rowerowe Łódzkie,Kutno,PL,Nextbike GmbH,52.2317,19.3564
rowerowe-lodzkie-rl-lodz-rl,Rowerowe Łódzkie,Łódź,PL,Nextbike GmbH,51.7674,19.4575
nextbike-odesa,Nextbike,Odesa,UA,Nextbike GmbH,46.4672,30.7164
nextbike-alvsjo,Nextbike,Älvsjö,DE,Nextbike GmbH,59.2745,18.005
nextbike-wittenberge,Nextbike,Wittenberge,DE,Nextbike GmbH,52.9952,11.7517
frelo-freiburg,Frelo,Freiburg,DE,Nextbike GmbH,47.9958,7.84453
bicincitta-trieste,BiTS,Trieste,IT,Comunicare S.r.l.,45.6495,13.7768
mobibike-dresden,MOBIbike,Dresden,DE,Nextbike GmbH,51.0535,13.7387
velobike-murmansk,Velobike,Murmansk,RU,ЗАО «СитиБайк»,68.968,33.074
velobike-nizhniy-novgorod,Velobike,Nizhniy Novgorod,RU,ЗАО «СитиБайк»,56.194,44.003
nextbike-ivano-frankivsk,Nextbike,Ivano Frankivsk,UA,Nextbike GmbH,48.9281,24.7103
almatybike,Almatybike,Almaty,KZ,"Velobike.kz, LLP & Smoove",43.239101,76.9268076
shymkentbike,Shymkentbike,Shymkent,KZ,"Velobike.kz, LLP & Smoove",42.3184,69.5978
bay-wheels,Bay Wheels,"San Francisco Bay Area, CA",US,Motivate LLC,37.7141454,-122.25
veloceo,Vélocéo,Vannes,FR,Smoove,47.6559,-2.7603
monabike,MonaBike,Monaco,MC,PBSC Urban Solutions,43.733333,7.416667
tlp-velo,Tarbes et Lourdes vls,"Tarbes, Lourdes",FR,Ecovelo,43.23,0.07
zebullo,ZébullO,Reims,FR,Ecovelo,49.2628,4.0347
velectin,Velect’in,Calais,FR,Ecovelo,50.948056,1.856389
rubis-velo,Rubis'Vélo,Bourg-en-Bresse,FR,Ecovelo,46.2056,5.2289
tanlib,Vélo tanlib,Niort,FR,Ecovelo,46.3258,-0.4606
marseillan,Marseillan vélo libre-service,Marseillan,FR,Ecovelo,43.3572,3.5283
via-velo,VIA Vélo,Val d'Ille-Aubigné,FR,Ecovelo,48.2181,-1.6947
velyceo,vélYcéo,Saint-Nazaire,FR,Ecovelo,47.2806,-2.2086
velocite-laon,Vélo'Cité,Laon,FR,Ecovelo,49.5639,3.6244
velo-baulois,Le Vélo Baulois,La Baule-Escoublac,FR,Ecovelo,47.2867,-2.3908
le-marcel,Le Marcel,Troyes,FR,Ecovelo,48.2997,4.0792
tempo-velo,Tempo Vélo,Agen,FR,Ecovelo,44.2049,0.6212
semo,semo,Communauté d'agglomération Seine-Eure,FR,Ecovelo,49.22,1.17
cyclovis,Cyclovis,Soissons,FR,Ecovelo,49.3817,3.3236
chantrerie-captainbike,Chantrerie VLS (Captain Bike),"La Chantrerie, Nantes",FR,Ecovelo,47.2868203,-1.5210917
saclay-captainbike,Saclay VLS (Captain Bike),Paris-Saclay,FR,Ecovelo,48.7098082,2.211366
velok,Vël'Ok,Esch-sur-alzette,LU,CIGL ESCH,49.5024,5.9722
